NORAD_CAT_ID,OBJECT_NAME,OBJECT_TYPE,EPOCH,MEAN_MOTION,ECCENTRICITY,INCLINATION,RA_OF_ASC_NODE,ARG_OF_PERICENTER,MEAN_ANOMALY,BSTAR,MEAN_MOTION_DOT,MEAN_MOTION_DDOT,TLE_LINE0,TLE_LINE1,TLE_LINE2,SEMIMAJOR_AXIS,PERIOD,APOGEE,PERIGEE,DECAYED
52134.0,STARLINK-3721,PAYLOAD,2022-03-22 16:00:00,15.84476801,0.0002139,53.2172,127.1137,296.2452,116.491,-0.0042181999999999,-0.00892383,0.0,0 STARLINK-3721,1 52134U 22029AY  22081.66667824 -.00892383  00000-0 -42182-2 0  9992,2 52134  53.2172 127.1137 0002139 296.2452 116.4910 15.84476801  1809,6695.935,90.882,319.233,316.368,0.0
52134.0,STARLINK-3721,PAYLOAD,2022-03-23 12:00:00,15.82893855,0.0001135,53.2174,122.926,71.101,55.428,-0.0044581,-0.00875563,0.0,0 STARLINK-3721,1 52134U 22029AY  22082.50001157 -.00875563  00000-0 -44581-2 0  9993,2 52134  53.2174 122.9260 0001135  71.1010  55.4280 15.82893855  1932,6700.399,90.973,323.024,321.503,0.0
52134.0,STARLINK-3721,PAYLOAD,2022-03-23 14:00:01,15.82735035,0.0001105,53.2172,122.5077,77.92699999999998,163.7213,-0.0044761,-0.00872771,0.0,0 STARLINK-3721,1 52134U 22029AY  22082.58334491 -.00872771  00000-0 -44761-2 0  9999,2 52134  53.2172 122.5077 0001105  77.9270 163.7213 15.82735035  1463,6700.847,90.982,323.452,321.971,0.0
52134.0,STARLINK-3721,PAYLOAD,2022-03-23 22:00:00,15.82107396,0.0001002999999999,53.2174,120.8334,62.7578,278.8949,-0.00463,-0.00876012,0.0,0 STARLINK-3721,1 52134U 22029AY  22082.91667824 -.00876012  00000-0 -46300-2 0  9998,2 52134  53.2174 120.8334 0001003  62.7578 278.8949 15.82107396  1515,6702.619000000002,91.018,325.156,323.812,0.0
52134.0,STARLINK-3721,PAYLOAD,2022-03-24 04:00:00,15.81638031,0.0001067,53.2177,119.5804,66.6828,259.4749,-0.0047528,-0.00879301,0.0,0 STARLINK-3721,1 52134U 22029AY  22083.16667824 -.00879301  00000-0 -47528-2 0  9993,2 52134  53.2177 119.5804 0001067  66.6828 259.4749 15.81638031  2031,6703.945,91.045,326.525,325.095,0.0
52134.0,STARLINK-3721,PAYLOAD,2022-03-24 14:00:01,15.80847378,0.0001151,53.2172,117.4956,70.5701,108.8198,-0.0048892,-0.00872475,0.0,0 STARLINK-3721,1 52134U 22029AY  22083.58334491 -.00872475  00000-0 -48892-2 0  9990,2 52134  53.2172 117.4956 0001151  70.5701 108.8198 15.80847378  1623,6706.18,91.09,328.81699999999995,327.273,0.0
52134.0,STARLINK-3721,PAYLOAD,2022-03-24 22:00:00,15.80219396,0.0001103,53.2174,115.826,66.023,211.1026,-0.0050482,-0.00874737,0.0,0 STARLINK-3721,1 52134U 22029AY  22083.91667824 -.00874737  00000-0 -50482-2 0  9997,2 52134  53.2174 115.8260 0001103  66.0230 211.1026 15.80219396  2159,6707.956999999999,91.127,330.5619999999999,329.082,0.0
52134.0,STARLINK-3721,PAYLOAD,2022-03-25 14:00:01,15.78961404,0.0001128,53.2171,112.4976,61.2384,49.0865,-0.00535,-0.00874956,0.0,0 STARLINK-3721,1 52134U 22029AY  22084.58334491 -.00874956  00000-0 -53500-2 0  9999,2 52134  53.2171 112.4976 0001128  61.2384  49.0865 15.78961404  1785,6711.519,91.199,334.141,332.6269999999999,0.0
52134.0,STARLINK-3721,PAYLOAD,2022-03-25 20:00:01,15.78488801,0.0001181,53.2175,111.2487,50.7888,41.2079,-0.0054591,-0.00873911,0.0,0 STARLINK-3721,1 52134U 22029AY  22084.83334491 -.00873911  00000-0 -54591-2 0  9998,2 52134  53.2175 111.2487 0001181  50.7888  41.2079 15.78488801  2309,6712.859,91.226,335.516,333.931,0.0
52134.0,STARLINK-3721,PAYLOAD,2022-03-25 22:00:01,15.78331149,0.0001256,53.2174,110.8325,58.9188,146.9397,-0.0054928999999999,-0.00873156,0.0,0 STARLINK-3721,1 52134U 22029AY  22084.91668981 -.00873156  00000-0 -54929-2 0  9997,2 52134  53.2174 110.8325 0001256  58.9188 146.9397 15.78331149  1835,6713.306,91.236,336.014,334.327,0.0
52134.0,STARLINK-3721,PAYLOAD,2022-03-26 12:00:00,15.77229038,0.0001307,53.2176,107.9286,49.8636,231.1741,-0.0057632,-0.00871825,0.0,0 STARLINK-3721,1 52134U 22029AY  22085.50001157 -.00871825  00000-0 -57632-2 0  9994,2 52134  53.2176 107.9286 0001307  49.8636 231.1741 15.77229038  2400,6716.433000000001,91.299,339.176,337.42,0.0
52134.0,STARLINK-3721,PAYLOAD,2022-03-26 14:00:01,15.77074511,0.0001036,53.2171,107.5134,59.691,334.7633,-0.0058306,-0.0087545,0.0,0 STARLINK-3721,1 52134U 22029AY  22085.58334491 -.00875450  00000-0 -58306-2 0  9999,2 52134  53.2171 107.5134 0001036  59.6910 334.7633 15.77074511  1948,6716.871,91.308,339.432,338.041,0.0
52134.0,STARLINK-3721,PAYLOAD,2022-03-26 22:00:00,15.76443697,0.0001214,53.2172,105.8532,54.3229,73.331,-0.0059835,-0.00873682,0.0,0 STARLINK-3721,1 52134U 22029AY  22085.91667824 -.00873682  00000-0 -59835-2 0  9998,2 52134  53.2172 105.8532 0001214  54.3229  73.3310 15.76443697  1992,6718.663000000001,91.345,341.344,339.712,0.0
52134.0,STARLINK-3721,PAYLOAD,2022-03-27 04:00:00,15.75972759,0.0001278,53.2175,104.6113,49.687,57.3679,-0.0061217,-0.00875203,0.0,0 STARLINK-3721,1 52134U 22029AY  22086.16667824 -.00875203  00000-0 -61217-2 0  9994,2 52134  53.2175 104.6113 0001278  49.6870  57.3679 15.75972759  2510,6720.002,91.372,342.725,341.0080000000001,0.0
52134.0,STARLINK-3721,PAYLOAD,2022-03-27 14:00:01,15.75186797,0.000105,53.2172,102.5433,67.9496,243.8284,-0.0063364,-0.00874926,0.0,0 STARLINK-3721,1 52134U 22029AY  22086.58334491 -.00874926  00000-0 -63364-2 0  9997,2 52134  53.2172 102.5433 0001050  67.9496 243.8284 15.75186797  2102,6722.236999999999,91.418,344.80800000000005,343.396,0.0
52134.0,STARLINK-3721,PAYLOAD,2022-03-27 22:00:01,15.74555583,0.0001122,53.2174,100.8875,53.0424,349.7327,-0.0065018,-0.00873417,0.0,0 STARLINK-3721,1 52134U 22029AY  22086.91668981 -.00873417  00000-0 -65018-2 0  9990,2 52134  53.2174 100.8875 0001122  53.0424 349.7327 15.74555583  2153,6724.033,91.454,346.653,345.144,0.0
52134.0,STARLINK-3721,PAYLOAD,2022-03-28 04:00:00,15.74083608,0.0001259,53.2178,99.6494,45.2753,335.1335,-0.0066269999999999,-0.00872247,0.0,0 STARLINK-3721,1 52134U 22029AY  22087.16667824 -.00872247  00000-0 -66270-2 0  9994,2 52134  53.2178  99.6494 0001259  45.2753 335.1335 15.74083608  2666,6725.377,91.482,348.089,346.395,0.0
52134.0,STARLINK-3721,PAYLOAD,2022-03-28 14:00:01,15.73214251,0.0001198,53.2171,97.5867,65.2988,157.0699,-0.00012795,-0.00018548,0.0,0 STARLINK-3721,1 52134U 22029AY  22087.58335648 -.00018548  00000-0 -12795-3 0  9996,2 52134  53.2171  97.5867 0001198  65.2988 157.0699 15.73214251  2735,6727.855,91.532,350.526,348.914,0.0
52134.0,STARLINK-3721,PAYLOAD,2022-03-28 22:00:00,15.73183528,0.0001207,53.2173,95.9356,55.0123,256.23900000000003,0.00025059,0.00034669,0.0,0 STARLINK-3721,1 52134U 22029AY  22087.91667824  .00034669  00000-0  25059-3 0  9994,2 52134  53.2173  95.9356 0001207  55.0123 256.2390 15.73183528  2317,6727.941999999999,91.534,350.619,348.995,0.0
52134.0,STARLINK-3721,PAYLOAD,2022-03-29 04:00:00,15.73288414,0.0001264999999999,53.2163,94.6995,65.8809,222.2373,-0.00031786,-0.00045159,0.0,0 STARLINK-3721,1 52134U 22029AY  22088.16667824 -.00045159  00000-0 -31786-3 0  9994,2 52134  53.2163  94.6995 0001265  65.8809 222.2373 15.73288414  2825,6727.643,91.528,350.3590000000001,348.657,0.0
52134.0,STARLINK-3721,PAYLOAD,2022-03-29 12:00:00,15.73219932,0.0001248,53.216,93.0512,52.6448,324.4549,-0.00022792,-0.0003251,0.0,0 STARLINK-3721,1 52134U 22029AY  22088.50001157 -.00032510  00000-0 -22792-3 0  9997,2 52134  53.2160  93.0512 0001248  52.6448 324.4549 15.73219932  2878,6727.8380000000025,91.532,350.543,348.86400000000015,0.0
52134.0,STARLINK-3721,PAYLOAD,2022-03-29 14:00:01,15.73237461,0.000123,53.2161,92.6381,54.125,75.2045,-0.00069786,-0.00097587,0.0,0 STARLINK-3721,1 52134U 22029AY  22088.58334491 -.00097587  00000-0 -69786-3 0  9994,2 52134  53.2161  92.6381 0001230  54.1250  75.2045 15.73237461  2416,6727.788000000001,91.531,350.481,348.826,0.0
52134.0,STARLINK-3721,PAYLOAD,2022-03-29 22:00:00,15.73123086,0.0001088,53.2164,90.9866,64.6009,153.6736,0.00054465,0.00076261,0.0,0 STARLINK-3721,1 52134U 22029AY  22088.91667824  .00076261  00000-0  54465-3 0  9992,2 52134  53.2164  90.9866 0001088  64.6009 153.6736 15.73123086  2478,6728.114000000001,91.538,350.711,349.247,0.0
52134.0,STARLINK-3721,PAYLOAD,2022-03-30 12:00:00,15.73226101,0.000132,53.2161,88.1021,56.6877,227.1595,-0.00014078,-0.00020352,0.0,0 STARLINK-3721,1 52134U 22029AY  22089.50001157 -.00020352  00000-0 -14078-3 0  9997,2 52134  53.2161  88.1021 0001320  56.6877 227.1595 15.73226101  3035,6727.821,91.532,350.574,348.798,0.0
52134.0,STARLINK-3721,PAYLOAD,2022-03-30 14:00:01,15.73225717,0.0001314,53.216,87.6891,59.7844,336.3671,-0.00017788,-0.00025536,0.0,0 STARLINK-3721,1 52134U 22029AY  22089.58335648 -.00025536  00000-0 -17788-3 0  9990,2 52134  53.2160  87.6891 0001314  59.7844 336.3671 15.73225717  2572,6727.821999999999,91.532,350.571,348.80300000000005,0.0
52134.0,STARLINK-3721,PAYLOAD,2022-03-30 22:00:00,15.732075199999995,0.0001163,53.2161,86.038,73.6002,51.4201,-8.5517e-05,-0.00012607,0.0,0 STARLINK-3721,1 52134U 22029AY  22089.91667824 -.00012607  00000-0 -85517-4 0  9992,2 52134  53.2161  86.0380 0001163  73.6002  51.4201 15.73207520  2635,6727.874,91.533,350.521,348.956,0.0
52134.0,STARLINK-3721,PAYLOAD,2022-03-31 14:00:01,15.73206251,9.64e-05,53.2163,82.7404,56.3431,246.5235,0.00033125,0.00046136,0.0,0 STARLINK-3721,1 52134U 22029AY  22090.58334491  .00046136  00000-0  33125-3 0  9997,2 52134  53.2163  82.7404 0000964  56.3431 246.5235 15.73206251  2734,6727.877,91.533,350.391,349.094,0.0
52134.0,STARLINK-3721,PAYLOAD,2022-03-31 20:00:01,15.73248183,9.36e-05,53.2165,81.5016,70.3625,209.234,0.0002017,0.00027839,0.0,0 STARLINK-3721,1 52134U 22029AY  22090.83334491  .00027839  00000-0  20170-3 0  9990,2 52134  53.2165  81.5016 0000936  70.3625 209.2340 15.73248183  3242,6727.7580000000025,91.53,350.25300000000016,348.99300000000005,0.0
52134.0,STARLINK-3721,PAYLOAD,2022-03-31 22:00:00,15.73255725,0.0001017,53.2167,81.0889,74.0942,317.7487,0.00016266,0.00022323,0.0,0 STARLINK-3721,1 52134U 22029AY  22090.91667824  .00022323  00000-0  16266-3 0  9992,2 52134  53.2167  81.0889 0001017  74.0942 317.7487 15.73255725  2797,6727.736,91.53,350.286,348.917,0.0
